NORAD_CAT_ID,OBJECT_NAME,OBJECT_TYPE,EPOCH,MEAN_MOTION,ECCENTRICITY,INCLINATION,RA_OF_ASC_NODE,ARG_OF_PERICENTER,MEAN_ANOMALY,BSTAR,MEAN_MOTION_DOT,MEAN_MOTION_DDOT,TLE_LINE0,TLE_LINE1,TLE_LINE2,SEMIMAJOR_AXIS,PERIOD,APOGEE,PERIGEE,DECAYED
49456.0,STARLINK-3124,PAYLOAD,2023-08-26 18:28:14,15.08840946,0.0001351,53.2185,55.7836,115.9042,244.2089,1.3395e-05,-7.5e-07,0.0,0 STARLINK-3124,1 49456U 21104BA  23238.76960741 -.00000075  00000-0  13395-4 0  9992,2 49456  53.2185  55.7836 0001351 115.9042 244.2089 15.08840946 98999,6917.877,95.437,540.677,538.808,0.0
49456.0,STARLINK-3124,PAYLOAD,2023-08-26 23:14:22,15.08848468,0.0001263,53.2179,54.8898,122.5404,237.5711,6.3291e-06,-1.87e-06,0.0,0 STARLINK-3124,1 49456U 21104BA  23238.96832057 -.00000187  00000-0  63291-5 0  9997,2 49456  53.2179  54.8898 0001263 122.5404 237.5711 15.08848468100097,6917.855,95.437,540.593,538.846,0.0
49456.0,STARLINK-3124,PAYLOAD,2023-08-27 16:43:37,15.08844974,0.0001329,53.2182,51.6223,102.1683,257.9458,4.7871e-05,4.74e-06,0.0,0 STARLINK-3124,1 49456U 21104BA  23239.69696372  .00000474  00000-0  47871-4 0  9999,2 49456  53.2182  51.6223 0001329 102.1683 257.9458 15.08844974 99138,6917.865,95.437,540.65,538.811,0.0
49456.0,STARLINK-3124,PAYLOAD,2023-08-28 18:09:48,15.08836627,0.0001231,53.2176,46.8654,98.0648,262.0484,-4.3546e-06,-3.57e-06,0.0,0 STARLINK-3124,1 49456U 21104BA  23240.75681272 -.00000357  00000-0 -43546-5 0  9999,2 49456  53.2176  46.8654 0001231  98.0648 262.0484 15.08836627100361,6917.891,95.438,540.607,538.904,0.0
49456.0,STARLINK-3124,PAYLOAD,2023-08-28 21:20:34,15.08838282,0.0001261,53.2177,46.2702,98.1174,261.9961,1.2466e-05,-8.9e-07,0.0,0 STARLINK-3124,1 49456U 21104BA  23240.88929135 -.00000089  00000-0  12466-4 0  9993,2 49456  53.2177  46.2702 0001261  98.1174 261.9961 15.08838282 99317,6917.886,95.438,540.623,538.878,0.0
49456.0,STARLINK-3124,PAYLOAD,2023-08-29 19:35:58,15.08846099,0.0001265,53.218,42.1075,92.258,267.8557,8.0385e-05,9.92e-06,0.0,0 STARLINK-3124,1 49456U 21104BA  23241.81664690  .00000992  00000-0  80385-4 0  9996,2 49456  53.2180  42.1075 0001265  92.2580 267.8557 15.08846099 99455,6917.862,95.437,540.602,538.852,0.0
49456.0,STARLINK-3124,PAYLOAD,2023-08-30 16:15:59,15.08832979,0.0001328,53.2186,38.2428,97.0054,263.1089,7.5584e-05,9.15e-06,0.0,0 STARLINK-3124,1 49456U 21104BA  23242.67777707  .00000915  00000-0  75584-4 0  9995,2 49456  53.2186  38.2428 0001328  97.0054 263.1089 15.08832979100654,6917.902,95.438,540.686,538.848,0.0
49456.0,STARLINK-3124,PAYLOAD,2023-08-31 17:42:09,15.08843908,0.0001442,53.2175,33.4831,84.8689,275.2467,2.1248e-05,5e-07,0.0,0 STARLINK-3124,1 49456U 21104BA  23243.73761423  .00000050  00000-0  21248-4 0  9999,2 49456  53.2175  33.4831 0001442  84.8689 275.2467 15.08843908100818,6917.868,95.437,540.731,538.736,0.0
49456.0,STARLINK-3124,PAYLOAD,2023-09-01 03:14:28,15.08844759,0.0001307,53.2176,31.6989,88.6697,271.4444,1.1677e-05,-1.02e-06,0.0,0 STARLINK-3124,1 49456U 21104BA  23244.13505293 -.00000102  00000-0  11677-4 0  9999,2 49456  53.2176  31.6989 0001307  88.6697 271.4444 15.08844759 99808,6917.866,95.437,540.635,538.827,0.0
49456.0,STARLINK-3124,PAYLOAD,2023-09-01 19:08:19,15.08846849,0.0001432,53.2188,28.7262,87.2966,272.819,0.00012887,1.764e-05,0.0,0 STARLINK-3124,1 49456U 21104BA  23244.79744902  .00001764  00000-0  12887-3 0  9990,2 49456  53.2188  28.7262 0001432  87.2966 272.8190 15.08846849100971,6917.859,95.437,540.715,538.734,0.0
49456.0,STARLINK-3124,PAYLOAD,2023-09-02 03:05:16,15.08838272,0.0001567,53.2191,27.2397,82.4531,277.6639,5.2919e-05,5.54e-06,0.0,0 STARLINK-3124,1 49456U 21104BA  23245.12865752  .00000554  00000-0  52919-4 0  9992,2 49456  53.2191  27.2397 0001567  82.4531 277.6639 15.08838272101021,6917.886,95.438,540.835,538.667,0.0
49456.0,STARLINK-3124,PAYLOAD,2023-09-02 18:59:06,15.08850633,0.0001334,53.2187,24.2645,87.5103,272.6042,0.00011928,1.611e-05,0.0,0 STARLINK-3124,1 49456U 21104BA  23245.79104826  .00001611  00000-0  11928-3 0  9992,2 49456  53.2187  24.2645 0001334  87.5103 272.6042 15.08850633100052,6917.848,95.437,540.636,538.79,0.0
49456.0,STARLINK-3124,PAYLOAD,2023-09-03 09:17:35,15.08844194,0.0001446,53.2189,21.5869,91.6257,268.4901,0.00010426,1.372e-05,0.0,0 STARLINK-3124,1 49456U 21104BA  23246.38721282  .00001372  00000-0  10426-3 0  9995,2 49456  53.2189  21.5869 0001446  91.6257 268.4901 15.08844194101213,6917.868,95.437,540.733,538.732,0.0
49456.0,STARLINK-3124,PAYLOAD,2023-09-03 17:14:30,15.08851583,0.0001428,53.2182,20.1013,89.4895,270.6261,0.00011883,1.604e-05,0.0,0 STARLINK-3124,1 49456U 21104BA  23246.71840751  .00001604  00000-0  11883-3 0  9991,2 49456  53.2182  20.1013 0001428  89.4895 270.6261 15.08851583101264,6917.845,95.437,540.698,538.722,0.0
49456.0,STARLINK-3124,PAYLOAD,2023-09-04 09:08:22,15.08836078,0.0001647,53.2191,17.1263,86.6158,273.5022,1.5422e-05,-4.3e-07,0.0,0 STARLINK-3124,1 49456U 21104BA  23247.38081721 -.00000043  00000-0  15422-4 0  9990,2 49456  53.2191  17.1263 0001647  86.6158 273.5022 15.08836078101361,6917.892,95.438,540.897,538.618,0.0
49456.0,STARLINK-3124,PAYLOAD,2023-09-05 07:23:47,15.08833601,0.0001185,53.2184,12.9648,91.2852,268.8276,3.9209e-05,3.36e-06,0.0,0 STARLINK-3124,1 49456U 21104BA  23248.30818293  .00000336  00000-0  39209-4 0  9998,2 49456  53.2184  12.9648 0001185  91.2852 268.8276 15.08833601100437,6917.9,95.438,540.585,538.945,0.0
49456.0,STARLINK-3124,PAYLOAD,2023-09-06 00:53:00,15.08863378,0.0001153,53.2186,9.6949,89.3167,270.7958,-0.00016691,-2.945e-05,0.0,0 STARLINK-3124,1 49456U 21104BA  23249.03680558 -.00002945  00000-0 -16691-3 0  9999,2 49456  53.2186   9.6949 0001153  89.3167 270.7958 15.08863378101612,6917.809,95.436,540.472,538.876,0.0
49456.0,STARLINK-3124,PAYLOAD,2023-09-06 08:49:57,15.08834444,0.0001634,53.2191,8.2101,97.0665,263.0513,0.00016057,2.268e-05,0.0,0 STARLINK-3124,1 49456U 21104BA  23249.36802237  .00002268  00000-0  16057-3 0  9997,2 49456  53.2191   8.2101 0001634  97.0665 263.0513 15.08834444101665,6917.897,95.438,540.893,538.632,0.0
49456.0,STARLINK-3124,PAYLOAD,2023-09-06 18:22:15,15.08842095,0.0001227,53.2185,6.4227,88.8415,271.2717,0.00018657,2.683e-05,0.0,0 STARLINK-3124,1 49456U 21104BA  23249.76545784  .00002683  00000-0  18657-3 0  9991,2 49456  53.2185   6.4227 0001227  88.8415 271.2717 15.08842095100652,6917.874,95.437,540.588,538.89,0.0
49456.0,STARLINK-3124,PAYLOAD,2023-09-07 07:05:21,15.08836985,0.000164,53.2186,4.0461,90.3389,269.7791,6.8709e-05,8.06e-06,0.0,0 STARLINK-3124,1 49456U 21104BA  23250.29538604  .00000806  00000-0  68709-4 0  9993,2 49456  53.2186   4.0461 0001640  90.3389 269.7791 15.08836985100738,6917.89,95.438,540.889,538.62,0.0
49456.0,STARLINK-3124,PAYLOAD,2023-09-08 00:34:35,15.08844222,0.0001286,53.2174,0.7783,96.2956,263.8182,2.8691e-05,1.69e-06,0.0,0 STARLINK-3124,1 49456U 21104BA  23251.02402042  .00000169  00000-0  28691-4 0  9999,2 49456  53.2174   0.7783 0001286  96.2956 263.8182 15.08844222101919,6917.867,95.437,540.622,538.843,0.0
49456.0,STARLINK-3124,PAYLOAD,2023-09-08 13:17:42,15.0876506,0.0002184,53.2207,358.4007,83.7388,276.3853,0.0011772,0.00018459,0.0,0 STARLINK-3124,1 49456U 21104BA  23251.55396806  .00018459  00000-0  11772-2 0  9998,2 49456  53.2207 358.4007 0002184  83.7388 276.3853 15.08765060100922,6918.109,95.442,541.485,538.464,0.0
49456.0,STARLINK-3124,PAYLOAD,2023-09-08 14:53:03,15.08848418,0.0001364,53.2184,358.1028,85.7625,274.3523,9.1974e-05,1.176e-05,0.0,0 STARLINK-3124,1 49456U 21104BA  23251.62017777  .00001176  00000-0  91974-4 0  9995,2 49456  53.2184 358.1028 0001364  85.7625 274.3523 15.08848418100933,6917.855,95.437,540.663,538.776,0.0
49456.0,STARLINK-3124,PAYLOAD,2023-09-09 06:46:55,15.08837204,0.0001725,53.2193,355.1275,72.7089,287.4091,5.6404e-05,6.1e-06,0.0,0 STARLINK-3124,1 49456U 21104BA  23252.28258745  .00000610  00000-0  56404-4 0  9991,2 49456  53.2193 355.1275 0001725  72.7089 287.4091 15.08837204102102,6917.889,95.438,540.947,538.561,0.0
49456.0,STARLINK-3124,PAYLOAD,2023-09-09 13:08:27,15.08843181,0.0001421,53.2187,353.9367,83.9608,276.1546,5.8925e-05,6.5e-06,0.0,0 STARLINK-3124,1 49456U 21104BA  23252.54754289  .00000650  00000-0  58925-4 0  9998,2 49456  53.2187 353.9367 0001421  83.9608 276.1546 15.08843181101073,6917.871,95.437,540.719,538.753,0.0
49456.0,STARLINK-3124,PAYLOAD,2023-09-09 14:43:50,15.0884656,0.0001521,53.2187,353.6384,83.1998,276.9167,9.4329e-05,1.214e-05,0.0,0 STARLINK-3124,1 49456U 21104BA  23252.61378024  .00001214  00000-0  94329-4 0  9990,2 49456  53.2187 353.6384 0001521  83.1998 276.9167 15.08846560102155,6917.86,95.437,540.778,538.673,0.0
49456.0,STARLINK-3124,PAYLOAD,2023-09-10 09:48:28,15.08841042,0.0001349,53.219,350.0698,86.6715,273.4431,0.00010672,1.411e-05,0.0,0 STARLINK-3124,1 49456U 21104BA  23253.40866228  .00001411  00000-0  10672-3 0  9993,2 49456  53.2190 350.0698 0001349  86.6715 273.4431 15.08841042102270,6917.877,95.437,540.675,538.809,0.0
49456.0,STARLINK-3124,PAYLOAD,2023-09-10 12:59:14,15.08848504,0.0001442,53.2194,349.475,93.1285,266.9873,0.00011014,1.466e-05,0.0,0 STARLINK-3124,1 49456U 21104BA  23253.54113780  .00001466  00000-0  11014-3 0  9997,2 49456  53.2194 349.4750 0001442  93.1285 266.9873 15.08848504101225,6917.854,95.437,540.717,538.722,0.0
49456.0,STARLINK-3124,PAYLOAD,2023-09-10 14:34:37,15.0884925,0.0001468,53.2193,349.177,96.3119,263.8041,0.00012387,1.684e-05,0.0,0 STARLINK-3124,1 49456U 21104BA  23253.60737686  .00001684  00000-0  12387-3 0  9997,2 49456  53.2193 349.1770 0001468  96.3119 263.8041 15.08849250102304,6917.852,95.437,540.733,538.702,0.0
49456.0,STARLINK-3124,PAYLOAD,2023-09-11 09:39:15,15.08841315,0.0001509,53.2186,345.6091,91.4236,268.6929,2.7534e-05,1.5e-06,0.0,0 STARLINK-3124,1 49456U 21104BA  23254.40226485  .00000150  00000-0  27534-4 0  9994,2 49456  53.2186 345.6091 0001509  91.4236 268.6929 15.08841315102420,6917.876,95.437,540.785,538.697,0.0
